start=new Date('2022-12-05T00:00:00.000Z').valueOf();
sats=[{"EPHEMERIS_TYPE":"0","TLE_LINE1":"1 45661U 20035E   22338.51625999  .00000768  00000-0  70432-4 0  9997","DECAY_DATE":null,"OBJECT_NAME":"STARLINK-1444","NORAD_CAT_ID":"45661","ELEMENT_SET_NO":"999","PERIOD":"95.592","OBJECT_ID":"2020-035E","GP_ID":"219518661","FILE":"3681207","REV_AT_EPOCH":"13919","MEAN_ANOMALY":"291.0235","MEAN_MOTION":"15.06398301","APOAPSIS":"548.324","EPOCH":"2022-12-04T12:23:24.863136","INCLINATION":"53.0556","TIME_SYSTEM":"UTC","MEAN_MOTION_DDOT":"0.0000000000000","MEAN_ELEMENT_THEORY":"SGP4","LAUNCH_DATE":"2020-06-04","RCS_SIZE":"LARGE","CLASSIFICATION_TYPE":"U","ECCENTRICITY":"0.00015960","OBJECT_TYPE":"PAYLOAD","ARG_OF_PERICENTER":"69.0925","PERIAPSIS":"546.113","COUNTRY_CODE":"US","BSTAR":"0.00007043200000","RA_OF_ASC_NODE":"14.0133","MEAN_MOTION_DOT":"0.00000768","CENTER_NAME":"EARTH","REF_FRAME":"TEME","SITE":"AFETR","TLE_LINE2":"2 45661  53.0556  14.0133 0001596  69.0925 291.0235 15.06398301139193","SEMIMAJOR_AXIS":"6925.354"},{"CLASSIFICATION_TYPE":"U","RCS_SIZE":"LARGE","ECCENTRICITY":"0.00014530","OBJECT_TYPE":"PAYLOAD","MEAN_ELEMENT_THEORY":"SGP4","MEAN_MOTION_DDOT":"0.0000000000000","LAUNCH_DATE":"2020-06-04","MEAN_MOTION_DOT":"-0.00001277","CENTER_NAME":"EARTH","REF_FRAME":"TEME","SITE":"AFETR","TLE_LINE2":"2 45662  53.0562  12.7573 0001453  62.1045 298.0091 15.06402565139233","SEMIMAJOR_AXIS":"6925.341","ARG_OF_PERICENTER":"62.1045","PERIAPSIS":"546.199","COUNTRY_CODE":"US","BSTAR":"-0.00006683900000","RA_OF_ASC_NODE":"12.7573","NORAD_CAT_ID":"45662","ELEMENT_SET_NO":"999","PERIOD":"95.592","OBJECT_ID":"2020-035F","EPHEMERIS_TYPE":"0","TLE_LINE1":"1 45662U 20035F   22338.79638325 -.00001277  00000-0 -66839-4 0  9999","DECAY_DATE":null,"OBJECT_NAME":"STARLINK-1445","MEAN_MOTION":"15.06402565","APOAPSIS":"548.212","EPOCH":"2022-12-04T19:06:47.512800","INCLINATION":"53.0562","TIME_SYSTEM":"UTC","GP_ID":"219551802","FILE":"3681494","REV_AT_EPOCH":"13923","MEAN_ANOMALY":"298.0091"},{"SEMIMAJOR_AXIS":"6925.349","TLE_LINE2":"2 45663  53.0566  12.7199 0001513  59.5951 300.5187 15.06399739139238","SITE":"AFETR","CENTER_NAME":"EARTH","MEAN_MOTION_DOT":"0.00002091","REF_FRAME":"TEME","BSTAR":"0.00015922000000","RA_OF_ASC_NODE":"12.7199","PERIAPSIS":"546.167","ARG_OF_PERICENTER":"59.5951","COUNTRY_CODE":"US","ECCENTRICITY":"0.00015130","RCS_SIZE":"LARGE","CLASSIFICATION_TYPE":"U","OBJECT_TYPE":"PAYLOAD","LAUNCH_DATE":"2020-06-04","MEAN_ELEMENT_THEORY":"SGP4","MEAN_MOTION_DDOT":"0.0000000000000","INCLINATION":"53.0566","TIME_SYSTEM":"UTC","EPOCH":"2022-12-04T19:12:06.340032","APOAPSIS":"548.262","MEAN_MOTION":"15.06399739","MEAN_ANOMALY":"300.5187","REV_AT_EPOCH":"13923","GP_ID":"219550058","FILE":"3681494","PERIOD":"95.592","ELEMENT_SET_NO":"999","OBJECT_ID":"2020-035G","NORAD_CAT_ID":"45663","DECAY_DATE":null,"TLE_LINE1":"1 45663U 20035G   22338.80007338  .00002091  00000-0  15922-3 0  9995","OBJECT_NAME":"STARLINK-1446","EPHEMERIS_TYPE":"0"},{"INCLINATION":"53.0575","TIME_SYSTEM":"UTC","APOAPSIS":"548.535","EPOCH":"2022-12-04T12:02:10.845888","MEAN_MOTION":"15.06396516","MEAN_ANOMALY":"300.9014","REV_AT_EPOCH":"13918","GP_ID":"219517911","FILE":"3681207","PERIOD":"95.592","ELEMENT_SET_NO":"999","OBJECT_ID":"2020-035J","NORAD_CAT_ID":"45665","DECAY_DATE":null,"TLE_LINE1":"1 45665U 20035J   22338.50151442  .00000332  00000-0  41219-4 0  9995","OBJECT_NAME":"STARLINK-1448","EPHEMERIS_TYPE":"0","SEMIMAJOR_AXIS":"6925.359","TLE_LINE2":"2 45665  53.0575  14.0833 0001892  59.2161 300.9014 15.06396516139187","SITE":"AFETR","CENTER_NAME":"EARTH","MEAN_MOTION_DOT":"0.00000332","REF_FRAME":"TEME","BSTAR":"0.00004121900000","RA_OF_ASC_NODE":"14.0833","PERIAPSIS":"545.914","ARG_OF_PERICENTER":"59.2161","COUNTRY_CODE":"US","ECCENTRICITY":"0.00018920","CLASSIFICATION_TYPE":"U","RCS_SIZE":"LARGE","OBJECT_TYPE":"PAYLOAD","LAUNCH_DATE":"2020-06-04","MEAN_ELEMENT_THEORY":"SGP4","MEAN_MOTION_DDOT":"0.0000000000000"},{"REF_FRAME":"TEME","MEAN_MOTION_DOT":"0.00000527","CENTER_NAME":"EARTH","TLE_LINE2":"2 45666  53.0564  12.5442 0001697  61.4856 298.6304 15.06395574139238","SITE":"AFETR","SEMIMAJOR_AXIS":"6925.362","COUNTRY_CODE":"US","ARG_OF_PERICENTER":"61.4856","PERIAPSIS":"546.052","RA_OF_ASC_NODE":"12.5442","BSTAR":"0.00005427300000","OBJECT_TYPE":"PAYLOAD","CLASSIFICATION_TYPE":"U","RCS_SIZE":"LARGE","ECCENTRICITY":"0.00016970","MEAN_MOTION_DDOT":"0.0000000000000","MEAN_ELEMENT_THEORY":"SGP4","LAUNCH_DATE":"2020-06-04","MEAN_MOTION":"15.06395574","APOAPSIS":"548.402","EPOCH":"2022-12-04T20:05:10.701024","TIME_SYSTEM":"UTC","INCLINATION":"53.0564","FILE":"3681494","GP_ID":"219551062","REV_AT_EPOCH":"13923","MEAN_ANOMALY":"298.6304","NORAD_CAT_ID":"45666","OBJECT_ID":"2020-035K","ELEMENT_SET_NO":"999","PERIOD":"95.592","EPHEMERIS_TYPE":"0","OBJECT_NAME":"STARLINK-1449","TLE_LINE1":"1 45666U 20035K   22338.83692941  .00000527  00000-0  54273-4 0  9996","DECAY_DATE":null},{"ECCENTRICITY":"0.00017940","CLASSIFICATION_TYPE":"U","RCS_SIZE":"LARGE","OBJECT_TYPE":"PAYLOAD","MEAN_ELEMENT_THEORY":"SGP4","MEAN_MOTION_DDOT":"0.0000000000000","LAUNCH_DATE":"2020-06-04","CENTER_NAME":"EARTH","MEAN_MOTION_DOT":"0.00000770","REF_FRAME":"TEME","SEMIMAJOR_AXIS":"6925.366","SITE":"AFETR","TLE_LINE2":"2 45667  53.0558  12.5909 0001794  55.6672 304.4486 15.06394308139230","PERIAPSIS":"545.989","ARG_OF_PERICENTER":"55.6672","COUNTRY_CODE":"US","BSTAR":"0.00007057000000","RA_OF_ASC_NODE":"12.5909","NORAD_CAT_ID":"45667","PERIOD":"95.593","ELEMENT_SET_NO":"999","OBJECT_ID":"2020-035L","EPHEMERIS_TYPE":"0","DECAY_DATE":null,"TLE_LINE1":"1 45667U 20035L   22338.83968477  .00000770  00000-0  70570-4 0  9995","OBJECT_NAME":"STARLINK-1450","MEAN_MOTION":"15.06394308","INCLINATION":"53.0558","TIME_SYSTEM":"UTC","EPOCH":"2022-12-04T20:09:08.764128","APOAPSIS":"548.473","GP_ID":"219551303","FILE":"3681494","MEAN_ANOMALY":"304.4486","REV_AT_EPOCH":"13923"},{"CLASSIFICATION_TYPE":"U","RCS_SIZE":"LARGE","ECCENTRICITY":"0.00016600","OBJECT_TYPE":"PAYLOAD","MEAN_ELEMENT_THEORY":"SGP4","MEAN_MOTION_DDOT":"0.0000000000000","LAUNCH_DATE":"2020-06-04","MEAN_MOTION_DOT":"0.00002068","CENTER_NAME":"EARTH","REF_FRAME":"TEME","TLE_LINE2":"2 45668  53.0561  12.7137 0001660  44.5523 315.5599 15.06407102139240","SITE":"AFETR","SEMIMAJOR_AXIS":"6925.327","ARG_OF_PERICENTER":"44.5523","PERIAPSIS":"546.042","COUNTRY_CODE":"US","BSTAR":"0.00015766000000","RA_OF_ASC_NODE":"12.7137","NORAD_CAT_ID":"45668","ELEMENT_SET_NO":"999","PERIOD":"95.592","OBJECT_ID":"2020-035M","EPHEMERIS_TYPE":"0","TLE_LINE1":"1 45668U 20035M   22338.80650128  .00002068  00000-0  15766-3 0  9991","DECAY_DATE":null,"OBJECT_NAME":"STARLINK-1451","MEAN_MOTION":"15.06407102","EPOCH":"2022-12-04T19:21:21.710592","APOAPSIS":"548.341","TIME_SYSTEM":"UTC","INCLINATION":"53.0561","GP_ID":"219550558","FILE":"3681494","REV_AT_EPOCH":"13924","MEAN_ANOMALY":"315.5599"},{"MEAN_MOTION":"15.06389988","TIME_SYSTEM":"UTC","INCLINATION":"53.0564","EPOCH":"2022-12-04T12:34:01.552512","APOAPSIS":"548.564","GP_ID":"219528238","FILE":"3681365","MEAN_ANOMALY":"289.9158","REV_AT_EPOCH":"13877","NORAD_CAT_ID":"45669","PERIOD":"95.593","ELEMENT_SET_NO":"999","OBJECT_ID":"2020-035N","EPHEMERIS_TYPE":"0","DECAY_DATE":null,"TLE_LINE1":"1 45669U 20035N   22338.52362908 -.00001493  00000-0 -81392-4 0  9999","OBJECT_NAME":"STARLINK-1452","CENTER_NAME":"EARTH","MEAN_MOTION_DOT":"-0.00001493","REF_FRAME":"TEME","SEMIMAJOR_AXIS":"6925.379","SITE":"AFETR","TLE_LINE2":"2 45669  53.0564  13.9728 0001906  70.2036 289.9158 15.06389988138774","PERIAPSIS":"545.924","ARG_OF_PERICENTER":"70.2036","COUNTRY_CODE":"US","BSTAR":"-0.00008139200000","RA_OF_ASC_NODE":"13.9728","ECCENTRICITY":"0.00019060","CLASSIFICATION_TYPE":"U","RCS_SIZE":"LARGE","OBJECT_TYPE":"PAYLOAD","MEAN_ELEMENT_THEORY":"SGP4","MEAN_MOTION_DDOT":"0.0000000000000","LAUNCH_DATE":"2020-06-04"},{"CLASSIFICATION_TYPE":"U","RCS_SIZE":"LARGE","ECCENTRICITY":"0.00014770","OBJECT_TYPE":"PAYLOAD","LAUNCH_DATE":"2020-06-04","MEAN_MOTION_DDOT":"0.0000000000000","MEAN_ELEMENT_THEORY":"SGP4","SITE":"AFETR","TLE_LINE2":"2 45670  53.0560 343.1255 0001477  68.1498 291.9648 15.06393402139231","SEMIMAJOR_AXIS":"6925.369","MEAN_MOTION_DOT":"0.00001840","CENTER_NAME":"EARTH","REF_FRAME":"TEME","BSTAR":"0.00014241000000","RA_OF_ASC_NODE":"343.1255","ARG_OF_PERICENTER":"68.1498","PERIAPSIS":"546.211","COUNTRY_CODE":"US","ELEMENT_SET_NO":"999","PERIOD":"95.593","OBJECT_ID":"2020-035P","NORAD_CAT_ID":"45670","TLE_LINE1":"1 45670U 20035P   22338.71437719  .00001840  00000-0  14241-3 0  9997","DECAY_DATE":null,"OBJECT_NAME":"STARLINK-1453","EPHEMERIS_TYPE":"0","EPOCH":"2022-12-04T17:08:42.189216","APOAPSIS":"548.257","INCLINATION":"53.0560","TIME_SYSTEM":"UTC","MEAN_MOTION":"15.06393402","REV_AT_EPOCH":"13923","MEAN_ANOMALY":"291.9648","GP_ID":"219528233","FILE":"3681365"},{"ECCENTRICITY":"0.00017170","CLASSIFICATION_TYPE":"U","RCS_SIZE":"LARGE","OBJECT_TYPE":"PAYLOAD","LAUNCH_DATE":"2020-06-04","MEAN_ELEMENT_THEORY":"SGP4","MEAN_MOTION_DDOT":"0.0000000000000","SEMIMAJOR_AXIS":"6925.377","SITE":"AFETR","TLE_LINE2":"2 45671  53.0579  12.7627 0001717  63.3573 296.7591 15.06390590139226","CENTER_NAME":"EARTH","MEAN_MOTION_DOT":"0.00000187","REF_FRAME":"TEME","BSTAR":"0.00003145600000","RA_OF_ASC_NODE":"12.7627","PERIAPSIS":"546.053","ARG_OF_PERICENTER":"63.3573","COUNTRY_CODE":"US","PERIOD":"95.593","ELEMENT_SET_NO":"999","OBJECT_ID":"2020-035Q","NORAD_CAT_ID":"45671","DECAY_DATE":null,"TLE_LINE1":"1 45671U 20035Q   22338.79270713  .00000187  00000-0  31456-4 0  9996","OBJECT_NAME":"STARLINK-1454","EPHEMERIS_TYPE":"0","INCLINATION":"53.0579","TIME_SYSTEM":"UTC","APOAPSIS":"548.431","EPOCH":"2022-12-04T19:01:29.896032","MEAN_MOTION":"15.06390590","MEAN_ANOMALY":"296.7591","REV_AT_EPOCH":"13922","GP_ID":"219551803","FILE":"3681494"}];
